[{"OBJECT_NAME":"STARLINK-36189","OBJECT_ID":"2025-293H","EPOCH":"2026-03-09T11:58:18.945696","MEAN_MOTION":14.98332853,"ECCENTRICITY":0.00031517,"INCLINATION":70.0008,"RA_OF_ASC_NODE":94.761,"ARG_OF_PERICENTER":268.6465,"MEAN_ANOMALY":91.4333,"EPHEMERIS_TYPE":0,"CLASSIFICATION_TYPE":"U","NORAD_CAT_ID":67010,"ELEMENT_SET_NO":999,"REV_AT_EPOCH":1486,"BSTAR":0.00033521818,"MEAN_MOTION_DOT":3.909e-5,"MEAN_MOTION_DDOT":0},{"OBJECT_NAME":"CZ-6A DEB","OBJECT_ID":"2024-140ABZ","EPOCH":"2026-03-09T13:17:15.461088","MEAN_MOTION":14.68773562,"ECCENTRICITY":0.01674753,"INCLINATION":88.9962,"RA_OF_ASC_NODE":280.8142,"ARG_OF_PERICENTER":196.7539,"MEAN_ANOMALY":162.8109,"EPHEMERIS_TYPE":0,"CLASSIFICATION_TYPE":"U","NORAD_CAT_ID":61809,"ELEMENT_SET_NO":999,"REV_AT_EPOCH":8094,"BSTAR":0.00036405273,"MEAN_MOTION_DOT":2.652e-5,"MEAN_MOTION_DDOT":0}]
